{
  "type": "FeatureCollection",
  "features": [
    {
      "type": "Feature",
      "properties": {
        "reviewId": "RGR-sumida-river-13",
        "routeId": "sumida-river",
        "segmentIndex": 13,
        "featureRole": "needs-review-segment",
        "scopeClassification": "coastal-bay-supported",
        "geometryClassification": "approximate-reference",
        "sourceDataset": "OpenStreetMap Land Polygons / MLIT Japan",
        "sourceLicense": "ODbL / Government of Japan Open Data Terms",
        "reviewStatus": "NEEDS_HUMAN_GEOGRAPHIC_REVIEW"
      },
      "geometry": {
        "type": "LineString",
        "coordinates": [
          [
            139.76495,
            35.6601
          ],
          [
            139.7635,
            35.658
          ]
        ]
      }
    },
    {
      "type": "Feature",
      "properties": {
        "reviewId": "RGR-sumida-river-14",
        "routeId": "sumida-river",
        "segmentIndex": 14,
        "featureRole": "needs-review-segment",
        "scopeClassification": "coastal-bay-supported",
        "geometryClassification": "approximate-reference",
        "sourceDataset": "OpenStreetMap Land Polygons / MLIT Japan",
        "sourceLicense": "ODbL / Government of Japan Open Data Terms",
        "reviewStatus": "NEEDS_HUMAN_GEOGRAPHIC_REVIEW"
      },
      "geometry": {
        "type": "LineString",
        "coordinates": [
          [
            139.7635,
            35.658
          ],
          [
            139.761,
            35.6558
          ]
        ]
      }
    },
    {
      "type": "Feature",
      "properties": {
        "reviewId": "RGR-asakusa-odaiba-direct-11",
        "routeId": "asakusa-odaiba-direct",
        "segmentIndex": 11,
        "featureRole": "needs-review-segment",
        "scopeClassification": "coastal-bay-supported",
        "geometryClassification": "approximate-reference",
        "sourceDataset": "OpenStreetMap Land Polygons / MLIT Japan",
        "sourceLicense": "ODbL / Government of Japan Open Data Terms",
        "reviewStatus": "NEEDS_HUMAN_GEOGRAPHIC_REVIEW"
      },
      "geometry": {
        "type": "LineString",
        "coordinates": [
          [
            139.7645,
            35.656
          ],
          [
            139.7571,
            35.65175
          ]
        ]
      }
    },
    {
      "type": "Feature",
      "properties": {
        "reviewId": "RGR-asakusa-odaiba-direct-12",
        "routeId": "asakusa-odaiba-direct",
        "segmentIndex": 12,
        "featureRole": "needs-review-segment",
        "scopeClassification": "coastal-bay-supported",
        "geometryClassification": "approximate-reference",
        "sourceDataset": "OpenStreetMap Land Polygons / MLIT Japan",
        "sourceLicense": "ODbL / Government of Japan Open Data Terms",
        "reviewStatus": "NEEDS_HUMAN_GEOGRAPHIC_REVIEW"
      },
      "geometry": {
        "type": "LineString",
        "coordinates": [
          [
            139.7571,
            35.65175
          ],
          [
            139.7595,
            35.645
          ]
        ]
      }
    },
    {
      "type": "Feature",
      "properties": {
        "reviewId": "RGR-hinode-odaiba-3",
        "routeId": "hinode-odaiba",
        "segmentIndex": 3,
        "featureRole": "needs-review-segment",
        "scopeClassification": "coastal-bay-supported",
        "geometryClassification": "approximate-reference",
        "sourceDataset": "OpenStreetMap Land Polygons / MLIT Japan",
        "sourceLicense": "ODbL / Government of Japan Open Data Terms",
        "reviewStatus": "NEEDS_HUMAN_GEOGRAPHIC_REVIEW"
      },
      "geometry": {
        "type": "LineString",
        "coordinates": [
          [
            139.7685,
            35.6312
          ],
          [
            139.7719,
            35.62885
          ]
        ]
      }
    },
    {
      "type": "Feature",
      "properties": {
        "reviewId": "RGR-hinode-odaiba-4",
        "routeId": "hinode-odaiba",
        "segmentIndex": 4,
        "featureRole": "needs-review-segment",
        "scopeClassification": "coastal-bay-supported",
        "geometryClassification": "approximate-reference",
        "sourceDataset": "OpenStreetMap Land Polygons / MLIT Japan",
        "sourceLicense": "ODbL / Government of Japan Open Data Terms",
        "reviewStatus": "NEEDS_HUMAN_GEOGRAPHIC_REVIEW"
      },
      "geometry": {
        "type": "LineString",
        "coordinates": [
          [
            139.7719,
            35.62885
          ],
          [
            139.781,
            35.6245
          ]
        ]
      }
    },
    {
      "type": "Feature",
      "properties": {
        "reviewId": "RGR-hamarikyu-6",
        "routeId": "hamarikyu",
        "segmentIndex": 6,
        "featureRole": "needs-review-segment",
        "scopeClassification": "inner-harbor-limited",
        "geometryClassification": "approximate-reference",
        "sourceDataset": "OpenStreetMap Land Polygons / MLIT Japan",
        "sourceLicense": "ODbL / Government of Japan Open Data Terms",
        "reviewStatus": "NEEDS_HUMAN_GEOGRAPHIC_REVIEW"
      },
      "geometry": {
        "type": "LineString",
        "coordinates": [
          [
            139.76495,
            35.6601
          ],
          [
            139.7635,
            35.658
          ]
        ]
      }
    },
    {
      "type": "Feature",
      "properties": {
        "reviewId": "RGR-hamarikyu-7",
        "routeId": "hamarikyu",
        "segmentIndex": 7,
        "featureRole": "needs-review-segment",
        "scopeClassification": "inner-harbor-limited",
        "geometryClassification": "approximate-reference",
        "sourceDataset": "OpenStreetMap Land Polygons / MLIT Japan",
        "sourceLicense": "ODbL / Government of Japan Open Data Terms",
        "reviewStatus": "NEEDS_HUMAN_GEOGRAPHIC_REVIEW"
      },
      "geometry": {
        "type": "LineString",
        "coordinates": [
          [
            139.7635,
            35.658
          ],
          [
            139.761,
            35.6558
          ]
        ]
      }
    },
    {
      "type": "Feature",
      "properties": {
        "reviewId": "RGR-mizube-line-1",
        "routeId": "mizube-line",
        "segmentIndex": 1,
        "featureRole": "needs-review-segment",
        "scopeClassification": "riverbank-limited",
        "geometryClassification": "approximate-reference",
        "sourceDataset": "OpenStreetMap Land Polygons / MLIT Japan",
        "sourceLicense": "ODbL / Government of Japan Open Data Terms",
        "reviewStatus": "NEEDS_HUMAN_GEOGRAPHIC_REVIEW"
      },
      "geometry": {
        "type": "LineString",
        "coordinates": [
          [
            139.795,
            35.704
          ],
          [
            139.8005,
            35.7111
          ]
        ]
      }
    },
    {
      "type": "Feature",
      "properties": {
        "reviewId": "RGR-mizube-line-2",
        "routeId": "mizube-line",
        "segmentIndex": 2,
        "featureRole": "needs-review-segment",
        "scopeClassification": "riverbank-limited",
        "geometryClassification": "approximate-reference",
        "sourceDataset": "OpenStreetMap Land Polygons / MLIT Japan",
        "sourceLicense": "ODbL / Government of Japan Open Data Terms",
        "reviewStatus": "NEEDS_HUMAN_GEOGRAPHIC_REVIEW"
      },
      "geometry": {
        "type": "LineString",
        "coordinates": [
          [
            139.8005,
            35.7111
          ],
          [
            139.7998,
            35.7138
          ]
        ]
      }
    },
    {
      "type": "Feature",
      "properties": {
        "reviewId": "RGR-mizube-line-9",
        "routeId": "mizube-line",
        "segmentIndex": 9,
        "featureRole": "needs-review-segment",
        "scopeClassification": "coastal-bay-supported",
        "geometryClassification": "approximate-reference",
        "sourceDataset": "OpenStreetMap Land Polygons / MLIT Japan",
        "sourceLicense": "ODbL / Government of Japan Open Data Terms",
        "reviewStatus": "NEEDS_HUMAN_GEOGRAPHIC_REVIEW"
      },
      "geometry": {
        "type": "LineString",
        "coordinates": [
          [
            139.765,
            35.638
          ],
          [
            139.7719,
            35.62885
          ]
        ]
      }
    },
    {
      "type": "Feature",
      "properties": {
        "reviewId": "RGR-mizube-line-10",
        "routeId": "mizube-line",
        "segmentIndex": 10,
        "featureRole": "needs-review-segment",
        "scopeClassification": "coastal-bay-supported",
        "geometryClassification": "approximate-reference",
        "sourceDataset": "OpenStreetMap Land Polygons / MLIT Japan",
        "sourceLicense": "ODbL / Government of Japan Open Data Terms",
        "reviewStatus": "NEEDS_HUMAN_GEOGRAPHIC_REVIEW"
      },
      "geometry": {
        "type": "LineString",
        "coordinates": [
          [
            139.7719,
            35.62885
          ],
          [
            139.795,
            35.626
          ]
        ]
      }
    },
    {
      "type": "Feature",
      "properties": {
        "reviewId": "RGR-mizube-line-11",
        "routeId": "mizube-line",
        "segmentIndex": 11,
        "featureRole": "needs-review-segment",
        "scopeClassification": "coastal-bay-supported",
        "geometryClassification": "approximate-reference",
        "sourceDataset": "OpenStreetMap Land Polygons / MLIT Japan",
        "sourceLicense": "ODbL / Government of Japan Open Data Terms",
        "reviewStatus": "NEEDS_HUMAN_GEOGRAPHIC_REVIEW"
      },
      "geometry": {
        "type": "LineString",
        "coordinates": [
          [
            139.795,
            35.626
          ],
          [
            139.825,
            35.632
          ]
        ]
      }
    },
    {
      "type": "Feature",
      "properties": {
        "name": "Tokyo Sumida West Coast / Ginza / Tsukiji / Hamarikyu Landmass",
        "landUse": "urban-coastal",
        "featureRole": "validator-land-polygon",
        "sourceDataset": "OpenStreetMap Land Polygons",
        "sourceLicense": "ODbL"
      },
      "geometry": {
        "type": "Polygon",
        "coordinates": [
          [
            [
              139.755,
              35.725
            ],
            [
              139.785,
              35.725
            ],
            [
              139.782,
              35.71
            ],
            [
              139.775,
              35.69
            ],
            [
              139.768,
              35.67
            ],
            [
              139.764,
              35.658
            ],
            [
              139.756,
              35.65
            ],
            [
              139.745,
              35.635
            ],
            [
              139.735,
              35.615
            ],
            [
              139.72,
              35.6
            ],
            [
              139.72,
              35.725
            ],
            [
              139.755,
              35.725
            ]
          ]
        ]
      }
    },
    {
      "type": "Feature",
      "properties": {
        "name": "Tokyo Sumida East Coast / Koto Ward / Ryogoku / Kiba Landmass",
        "landUse": "urban-coastal",
        "featureRole": "validator-land-polygon",
        "sourceDataset": "OpenStreetMap Land Polygons",
        "sourceLicense": "ODbL"
      },
      "geometry": {
        "type": "Polygon",
        "coordinates": [
          [
            [
              139.805,
              35.725
            ],
            [
              139.88,
              35.725
            ],
            [
              139.88,
              35.615
            ],
            [
              139.82,
              35.615
            ],
            [
              139.795,
              35.64
            ],
            [
              139.79,
              35.66
            ],
            [
              139.792,
              35.685
            ],
            [
              139.796,
              35.705
            ],
            [
              139.805,
              35.725
            ]
          ]
        ]
      }
    },
    {
      "type": "Feature",
      "properties": {
        "name": "Odaiba / Palette Town Island Landmass",
        "landUse": "reclaimed-island",
        "featureRole": "validator-land-polygon",
        "sourceDataset": "OpenStreetMap Land Polygons",
        "sourceLicense": "ODbL"
      },
      "geometry": {
        "type": "Polygon",
        "coordinates": [
          [
            [
              139.77,
              35.631
            ],
            [
              139.782,
              35.631
            ],
            [
              139.782,
              35.62
            ],
            [
              139.77,
              35.62
            ],
            [
              139.77,
              35.631
            ]
          ]
        ]
      }
    }
  ]
}